<?xml version="1.0" encoding="UTF-8"?>
<gpx xmlns="http://www.topografix.com/GPX/1/1" xmlns:gpxtpx="http://www.garmin.com/xmlschemas/TrackPointExtension/v1" xmlns:xsi="http://www.w3.org/2001/XMLSchema-instance" xsi:schemaLocation="http://www.topografix.com/GPX/1/1 http://www.topografix.com/GPX/1/1/gpx.xsd" version="1.1" creator="gpx.py -- https://github.com/tkrajina/gpxpy">
  <trk>
    <name>run from tulipsport by Suunto</name>
    <trkseg>
      <trkpt lat="31.128171701" lon="121.401463319">
        <ele>10.4</ele>
        <time>2026-09-28T23:08:10+08:00</time>
      </trkpt>
      <trkpt lat="31.1280349921" lon="121.401459966">
        <ele>8.0</ele>
        <time>2026-09-28T23:08:13+08:00</time>
      </trkpt>
      <trkpt lat="31.1279533524" lon="121.401463319">
        <ele>8.6</ele>
        <time>2026-09-28T23:08:16+08:00</time>
      </trkpt>
      <trkpt lat="31.1278800108" lon="121.401481675">
        <ele>9.4</ele>
        <time>2026-09-28T23:08:22+08:00</time>
      </trkpt>
      <trkpt lat="31.1277950183" lon="121.401495002">
        <ele>8.6</ele>
        <time>2026-09-28T23:08:27+08:00</time>
      </trkpt>
      <trkpt lat="31.1277250294" lon="121.401541689">
        <ele>13.6</ele>
        <time>2026-09-28T23:08:31+08:00</time>
      </trkpt>
      <trkpt lat="31.1276433058" lon="121.401558369">
        <ele>14.4</ele>
        <time>2026-09-28T23:08:35+08:00</time>
      </trkpt>
      <trkpt lat="31.1275699642" lon="121.401541689">
        <ele>13.4</ele>
        <time>2026-09-28T23:08:40+08:00</time>
      </trkpt>
      <trkpt lat="31.1274883244" lon="121.401528362">
        <ele>8.8</ele>
        <time>2026-09-28T23:08:45+08:00</time>
      </trkpt>
      <trkpt lat="31.1274433136" lon="121.401451668">
        <ele>9.0</ele>
        <time>2026-09-28T23:08:53+08:00</time>
      </trkpt>
      <trkpt lat="31.1274299864" lon="121.401358293">
        <ele>9.2</ele>
        <time>2026-09-28T23:08:57+08:00</time>
      </trkpt>
      <trkpt lat="31.1274399608" lon="121.401270032">
        <ele>10.8</ele>
        <time>2026-09-28T23:09:03+08:00</time>
      </trkpt>
      <trkpt lat="31.1274466664" lon="121.401178334">
        <ele>10.8</ele>
        <time>2026-09-28T23:09:07+08:00</time>
      </trkpt>
      <trkpt lat="31.1274366919" lon="121.401089989">
        <ele>8.2</ele>
        <time>2026-09-28T23:09:11+08:00</time>
      </trkpt>
      <trkpt lat="31.1274350155" lon="121.400989993">
        <ele>8.0</ele>
        <time>2026-09-28T23:09:16+08:00</time>
      </trkpt>
      <trkpt lat="31.1274299864" lon="121.400889996">
        <ele>8.2</ele>
        <time>2026-09-28T23:09:21+08:00</time>
      </trkpt>
      <trkpt lat="31.1274149828" lon="121.400780026">
        <ele>7.6</ele>
        <time>2026-09-28T23:09:26+08:00</time>
      </trkpt>
      <trkpt lat="31.1274149828" lon="121.400684975">
        <ele>6.8</ele>
        <time>2026-09-28T23:09:30+08:00</time>
      </trkpt>
      <trkpt lat="31.1274166591" lon="121.400581626">
        <ele>6.0</ele>
        <time>2026-09-28T23:09:34+08:00</time>
      </trkpt>
      <trkpt lat="31.1274100374" lon="121.400483306">
        <ele>5.4</ele>
        <time>2026-09-28T23:09:38+08:00</time>
      </trkpt>
      <trkpt lat="31.1274149828" lon="121.400380041">
        <ele>5.4</ele>
        <time>2026-09-28T23:09:42+08:00</time>
      </trkpt>
      <trkpt lat="31.1274133064" lon="121.400279962">
        <ele>5.6</ele>
        <time>2026-09-28T23:09:46+08:00</time>
      </trkpt>
      <trkpt lat="31.1274133064" lon="121.400179965">
        <ele>6.4</ele>
        <time>2026-09-28T23:09:50+08:00</time>
      </trkpt>
      <trkpt lat="31.1274149828" lon="121.400078293">
        <ele>6.4</ele>
        <time>2026-09-28T23:09:54+08:00</time>
      </trkpt>
      <trkpt lat="31.1274200119" lon="121.399986679">
        <ele>6.0</ele>
        <time>2026-09-28T23:09:58+08:00</time>
      </trkpt>
      <trkpt lat="31.1274183355" lon="121.39988333">
        <ele>6.0</ele>
        <time>2026-09-28T23:10:02+08:00</time>
      </trkpt>
      <trkpt lat="31.1274266336" lon="121.399791632">
        <ele>6.8</ele>
        <time>2026-09-28T23:10:06+08:00</time>
      </trkpt>
      <trkpt lat="31.1274066847" lon="121.399700018">
        <ele>7.2</ele>
        <time>2026-09-28T23:10:10+08:00</time>
      </trkpt>
      <trkpt lat="31.1274149828" lon="121.399603374">
        <ele>7.0</ele>
        <time>2026-09-28T23:10:14+08:00</time>
      </trkpt>
      <trkpt lat="31.1274316628" lon="121.399515029">
        <ele>7.8</ele>
        <time>2026-09-28T23:10:18+08:00</time>
      </trkpt>
      <trkpt lat="31.1274350155" lon="121.399430037">
        <ele>8.8</ele>
        <time>2026-09-28T23:10:22+08:00</time>
      </trkpt>
      <trkpt lat="31.1274516955" lon="121.399325011">
        <ele>8.8</ele>
        <time>2026-09-28T23:10:26+08:00</time>
      </trkpt>
      <trkpt lat="31.12746167" lon="121.399241695">
        <ele>8.2</ele>
        <time>2026-09-28T23:10:30+08:00</time>
      </trkpt>
      <trkpt lat="31.1274716444" lon="121.39913667">
        <ele>7.6</ele>
        <time>2026-09-28T23:10:34+08:00</time>
      </trkpt>
      <trkpt lat="31.1274716444" lon="121.399043296">
        <ele>7.6</ele>
        <time>2026-09-28T23:10:38+08:00</time>
      </trkpt>
      <trkpt lat="31.1274900008" lon="121.398946652">
        <ele>8.4</ele>
        <time>2026-09-28T23:10:42+08:00</time>
      </trkpt>
      <trkpt lat="31.1275066808" lon="121.398838358">
        <ele>8.2</ele>
        <time>2026-09-28T23:10:46+08:00</time>
      </trkpt>
      <trkpt lat="31.1275350116" lon="121.398755042">
        <ele>8.4</ele>
        <time>2026-09-28T23:10:50+08:00</time>
      </trkpt>
      <trkpt lat="31.1275549605" lon="121.398651693">
        <ele>7.6</ele>
        <time>2026-09-28T23:10:54+08:00</time>
      </trkpt>
      <trkpt lat="31.1275783461" lon="121.398569969">
        <ele>8.4</ele>
        <time>2026-09-28T23:10:57+08:00</time>
      </trkpt>
      <trkpt lat="31.1276050005" lon="121.398463352">
        <ele>8.4</ele>
        <time>2026-09-28T23:11:01+08:00</time>
      </trkpt>
      <trkpt lat="31.1276283022" lon="121.398381628">
        <ele>8.2</ele>
        <time>2026-09-28T23:11:04+08:00</time>
      </trkpt>
      <trkpt lat="31.1276550405" lon="121.398276687">
        <ele>8.6</ele>
        <time>2026-09-28T23:11:08+08:00</time>
      </trkpt>
      <trkpt lat="31.1276849639" lon="121.398184989">
        <ele>9.4</ele>
        <time>2026-09-28T23:11:12+08:00</time>
      </trkpt>
      <trkpt lat="31.1277033202" lon="121.398086669">
        <ele>9.2</ele>
        <time>2026-09-28T23:11:16+08:00</time>
      </trkpt>
      <trkpt lat="31.1277267057" lon="121.397990026">
        <ele>8.8</ele>
        <time>2026-09-28T23:11:20+08:00</time>
      </trkpt>
      <trkpt lat="31.1277533602" lon="121.397896651">
        <ele>8.6</ele>
        <time>2026-09-28T23:11:24+08:00</time>
      </trkpt>
      <trkpt lat="31.1277766619" lon="121.397793302">
        <ele>8.0</ele>
        <time>2026-09-28T23:11:29+08:00</time>
      </trkpt>
      <trkpt lat="31.1278100219" lon="121.397711663">
        <ele>8.0</ele>
        <time>2026-09-28T23:11:33+08:00</time>
      </trkpt>
      <trkpt lat="31.1278383527" lon="121.397624994">
        <ele>7.6</ele>
        <time>2026-09-28T23:11:37+08:00</time>
      </trkpt>
      <trkpt lat="31.1278616544" lon="121.397541678">
        <ele>8.8</ele>
        <time>2026-09-28T23:11:41+08:00</time>
      </trkpt>
      <trkpt lat="31.1278850399" lon="121.397448303">
        <ele>8.8</ele>
        <time>2026-09-28T23:11:45+08:00</time>
      </trkpt>
      <trkpt lat="31.1279149633" lon="121.397360042">
        <ele>8.6</ele>
        <time>2026-09-28T23:11:49+08:00</time>
      </trkpt>
      <trkpt lat="31.1279466469" lon="121.397273373">
        <ele>8.2</ele>
        <time>2026-09-28T23:11:53+08:00</time>
      </trkpt>
      <trkpt lat="31.1279833596" lon="121.397188297">
        <ele>8.4</ele>
        <time>2026-09-28T23:11:58+08:00</time>
      </trkpt>
      <trkpt lat="31.1280133668" lon="121.39711001">
        <ele>8.2</ele>
        <time>2026-09-28T23:12:02+08:00</time>
      </trkpt>
      <trkpt lat="31.1280499958" lon="121.39701169">
        <ele>8.4</ele>
        <time>2026-09-28T23:12:07+08:00</time>
      </trkpt>
      <trkpt lat="31.1280899774" lon="121.396940025">
        <ele>7.6</ele>
        <time>2026-09-28T23:12:11+08:00</time>
      </trkpt>
      <trkpt lat="31.1281433702" lon="121.396858301">
        <ele>7.4</ele>
        <time>2026-09-28T23:12:16+08:00</time>
      </trkpt>
      <trkpt lat="31.1281899735" lon="121.396786636">
        <ele>7.6</ele>
        <time>2026-09-28T23:12:20+08:00</time>
      </trkpt>
      <trkpt lat="31.1282366607" lon="121.396696698">
        <ele>7.0</ele>
        <time>2026-09-28T23:12:25+08:00</time>
      </trkpt>
      <trkpt lat="31.1282933224" lon="121.396626625">
        <ele>7.4</ele>
        <time>2026-09-28T23:12:30+08:00</time>
      </trkpt>
      <trkpt lat="31.1283133551" lon="121.396529982">
        <ele>7.8</ele>
        <time>2026-09-28T23:12:35+08:00</time>
      </trkpt>
      <trkpt lat="31.1283466313" lon="121.396451695">
        <ele>7.6</ele>
        <time>2026-09-28T23:12:39+08:00</time>
      </trkpt>
      <trkpt lat="31.1283933185" lon="121.396375">
        <ele>7.0</ele>
        <time>2026-09-28T23:12:44+08:00</time>
      </trkpt>
      <trkpt lat="31.128461631" lon="121.396310041">
        <ele>7.0</ele>
        <time>2026-09-28T23:12:49+08:00</time>
      </trkpt>
      <trkpt lat="31.1285182927" lon="121.396243321">
        <ele>8.2</ele>
        <time>2026-09-28T23:12:55+08:00</time>
      </trkpt>
      <trkpt lat="31.1285783071" lon="121.396180037">
        <ele>8.4</ele>
        <time>2026-09-28T23:13:01+08:00</time>
      </trkpt>
      <trkpt lat="31.1286116671" lon="121.396076689">
        <ele>8.6</ele>
        <time>2026-09-28T23:13:05+08:00</time>
      </trkpt>
      <trkpt lat="31.1286349688" lon="121.395966634">
        <ele>8.6</ele>
        <time>2026-09-28T23:13:09+08:00</time>
      </trkpt>
      <trkpt lat="31.1286583543" lon="121.395881642">
        <ele>9.0</ele>
        <time>2026-09-28T23:13:14+08:00</time>
      </trkpt>
      <trkpt lat="31.128698336" lon="121.395798326">
        <ele>9.8</ele>
        <time>2026-09-28T23:13:19+08:00</time>
      </trkpt>
      <trkpt lat="31.1287349649" lon="121.395718362">
        <ele>9.4</ele>
        <time>2026-09-28T23:13:23+08:00</time>
      </trkpt>
      <trkpt lat="31.1287767068" lon="121.395641668">
        <ele>9.2</ele>
        <time>2026-09-28T23:13:27+08:00</time>
      </trkpt>
      <trkpt lat="31.1288233101" lon="121.395558352">
        <ele>8.8</ele>
        <time>2026-09-28T23:13:32+08:00</time>
      </trkpt>
      <trkpt lat="31.1288600229" lon="121.395476628">
        <ele>8.6</ele>
        <time>2026-09-28T23:13:36+08:00</time>
      </trkpt>
      <trkpt lat="31.1288200412" lon="121.39556665">
        <ele>9.4</ele>
        <time>2026-09-28T23:13:44+08:00</time>
      </trkpt>
      <trkpt lat="31.1287666485" lon="121.395643344">
        <ele>9.4</ele>
        <time>2026-09-28T23:13:48+08:00</time>
      </trkpt>
      <trkpt lat="31.1287150159" lon="121.395716686">
        <ele>10.0</ele>
        <time>2026-09-28T23:13:52+08:00</time>
      </trkpt>
      <trkpt lat="31.1286766268" lon="121.395803355">
        <ele>10.2</ele>
        <time>2026-09-28T23:13:56+08:00</time>
      </trkpt>
      <trkpt lat="31.1286349688" lon="121.395878373">
        <ele>10.0</ele>
        <time>2026-09-28T23:14:00+08:00</time>
      </trkpt>
      <trkpt lat="31.1286066379" lon="121.395958336">
        <ele>9.6</ele>
        <time>2026-09-28T23:14:04+08:00</time>
      </trkpt>
      <trkpt lat="31.128570009" lon="121.396048358">
        <ele>9.6</ele>
        <time>2026-09-28T23:14:08+08:00</time>
      </trkpt>
      <trkpt lat="31.1285482999" lon="121.396138296">
        <ele>9.4</ele>
        <time>2026-09-28T23:14:12+08:00</time>
      </trkpt>
      <trkpt lat="31.1284899618" lon="121.396208368">
        <ele>9.6</ele>
        <time>2026-09-28T23:14:16+08:00</time>
      </trkpt>
      <trkpt lat="31.1284182966" lon="121.396266706">
        <ele>9.8</ele>
        <time>2026-09-28T23:14:20+08:00</time>
      </trkpt>
      <trkpt lat="31.1283683404" lon="121.396335019">
        <ele>9.8</ele>
        <time>2026-09-28T23:14:24+08:00</time>
      </trkpt>
      <trkpt lat="31.1283400096" lon="121.396416659">
        <ele>9.6</ele>
        <time>2026-09-28T23:14:29+08:00</time>
      </trkpt>
      <trkpt lat="31.128291646" lon="121.396493353">
        <ele>9.6</ele>
        <time>2026-09-28T23:14:34+08:00</time>
      </trkpt>
      <trkpt lat="31.1282550171" lon="121.396584967">
        <ele>9.0</ele>
        <time>2026-09-28T23:14:39+08:00</time>
      </trkpt>
      <trkpt lat="31.1282366607" lon="121.396674989">
        <ele>9.0</ele>
        <time>2026-09-28T23:14:45+08:00</time>
      </trkpt>
      <trkpt lat="31.1282049771" lon="121.396756629">
        <ele>8.4</ele>
        <time>2026-09-28T23:14:49+08:00</time>
      </trkpt>
      <trkpt lat="31.128155021" lon="121.396825025">
        <ele>8.6</ele>
        <time>2026-09-28T23:14:53+08:00</time>
      </trkpt>
      <trkpt lat="31.128104981" lon="121.396886632">
        <ele>8.4</ele>
        <time>2026-09-28T23:14:57+08:00</time>
      </trkpt>
      <trkpt lat="31.1280533485" lon="121.396953352">
        <ele>8.2</ele>
        <time>2026-09-28T23:15:01+08:00</time>
      </trkpt>
      <trkpt lat="31.1280149594" lon="121.397031639">
        <ele>8.2</ele>
        <time>2026-09-28T23:15:05+08:00</time>
      </trkpt>
      <trkpt lat="31.1279783305" lon="121.397111686">
        <ele>7.6</ele>
        <time>2026-09-28T23:15:09+08:00</time>
      </trkpt>
      <trkpt lat="31.1279599741" lon="121.397210006">
        <ele>7.0</ele>
        <time>2026-09-28T23:15:14+08:00</time>
      </trkpt>
      <trkpt lat="31.1279299669" lon="121.397291645">
        <ele>6.0</ele>
        <time>2026-09-28T23:15:18+08:00</time>
      </trkpt>
      <trkpt lat="31.1278950144" lon="121.397374962">
        <ele>6.4</ele>
        <time>2026-09-28T23:15:22+08:00</time>
      </trkpt>
      <trkpt lat="31.1278700363" lon="121.397456685">
        <ele>5.6</ele>
        <time>2026-09-28T23:15:26+08:00</time>
      </trkpt>
      <trkpt lat="31.1278349999" lon="121.397543354">
        <ele>5.6</ele>
        <time>2026-09-28T23:15:31+08:00</time>
      </trkpt>
      <trkpt lat="31.1278100219" lon="121.397628346">
        <ele>5.4</ele>
        <time>2026-09-28T23:15:35+08:00</time>
      </trkpt>
      <trkpt lat="31.1277800146" lon="121.397719961">
        <ele>5.4</ele>
        <time>2026-09-28T23:15:39+08:00</time>
      </trkpt>
      <trkpt lat="31.1277500074" lon="121.397813335">
        <ele>6.4</ele>
        <time>2026-09-28T23:15:44+08:00</time>
      </trkpt>
      <trkpt lat="31.1277250294" lon="121.397900004">
        <ele>6.4</ele>
        <time>2026-09-28T23:15:48+08:00</time>
      </trkpt>
      <trkpt lat="31.1277016439" lon="121.397979967">
        <ele>6.2</ele>
        <time>2026-09-28T23:15:52+08:00</time>
      </trkpt>
      <trkpt lat="31.1276749894" lon="121.398068313">
        <ele>6.0</ele>
        <time>2026-09-28T23:15:56+08:00</time>
      </trkpt>
      <trkpt lat="31.1276449822" lon="121.39816504">
        <ele>6.2</ele>
        <time>2026-09-28T23:16:01+08:00</time>
      </trkpt>
      <trkpt lat="31.1276233569" lon="121.398256654">
        <ele>5.8</ele>
        <time>2026-09-28T23:16:05+08:00</time>
      </trkpt>
      <trkpt lat="31.1276033241" lon="121.398350028">
        <ele>5.4</ele>
        <time>2026-09-28T23:16:10+08:00</time>
      </trkpt>
      <trkpt lat="31.1275899969" lon="121.398451701">
        <ele>5.8</ele>
        <time>2026-09-28T23:16:15+08:00</time>
      </trkpt>
      <trkpt lat="31.1275733169" lon="121.398550021">
        <ele>6.0</ele>
        <time>2026-09-28T23:16:20+08:00</time>
      </trkpt>
      <trkpt lat="31.1275583133" lon="121.398646664">
        <ele>7.4</ele>
        <time>2026-09-28T23:16:25+08:00</time>
      </trkpt>
      <trkpt lat="31.1275400408" lon="121.39874666">
        <ele>8.6</ele>
        <time>2026-09-28T23:16:30+08:00</time>
      </trkpt>
      <trkpt lat="31.1275266297" lon="121.398848332">
        <ele>9.4</ele>
        <time>2026-09-28T23:16:35+08:00</time>
      </trkpt>
      <trkpt lat="31.127503328" lon="121.398948329">
        <ele>9.6</ele>
        <time>2026-09-28T23:16:40+08:00</time>
      </trkpt>
      <trkpt lat="31.1274916772" lon="121.399036674">
        <ele>10.0</ele>
        <time>2026-09-28T23:16:45+08:00</time>
      </trkpt>
      <trkpt lat="31.1274916772" lon="121.399126695">
        <ele>12.8</ele>
        <time>2026-09-28T23:16:50+08:00</time>
      </trkpt>
      <trkpt lat="31.12747835" lon="121.399229961">
        <ele>13.8</ele>
        <time>2026-09-28T23:16:55+08:00</time>
      </trkpt>
      <trkpt lat="31.1274682917" lon="121.399328364">
        <ele>13.6</ele>
        <time>2026-09-28T23:16:59+08:00</time>
      </trkpt>
      <trkpt lat="31.12746167" lon="121.399415033">
        <ele>13.6</ele>
        <time>2026-09-28T23:17:03+08:00</time>
      </trkpt>
      <trkpt lat="31.1274500191" lon="121.399501702">
        <ele>13.6</ele>
        <time>2026-09-28T23:17:07+08:00</time>
      </trkpt>
      <trkpt lat="31.12744499" lon="121.399593316">
        <ele>13.8</ele>
        <time>2026-09-28T23:17:11+08:00</time>
      </trkpt>
      <trkpt lat="31.1274433136" lon="121.399678309">
        <ele>14.2</ele>
        <time>2026-09-28T23:17:15+08:00</time>
      </trkpt>
      <trkpt lat="31.1274350155" lon="121.399776628">
        <ele>13.6</ele>
        <time>2026-09-28T23:17:19+08:00</time>
      </trkpt>
      <trkpt lat="31.12742831" lon="121.399871679">
        <ele>13.2</ele>
        <time>2026-09-28T23:17:23+08:00</time>
      </trkpt>
      <trkpt lat="31.1274299864" lon="121.39996497">
        <ele>12.8</ele>
        <time>2026-09-28T23:17:27+08:00</time>
      </trkpt>
      <trkpt lat="31.1274366919" lon="121.400058344">
        <ele>13.4</ele>
        <time>2026-09-28T23:17:31+08:00</time>
      </trkpt>
      <trkpt lat="31.1274350155" lon="121.400161693">
        <ele>12.4</ele>
        <time>2026-09-28T23:17:35+08:00</time>
      </trkpt>
      <trkpt lat="31.1274299864" lon="121.400266634">
        <ele>12.4</ele>
        <time>2026-09-28T23:17:39+08:00</time>
      </trkpt>
      <trkpt lat="31.1274233647" lon="121.40037166">
        <ele>12.2</ele>
        <time>2026-09-28T23:17:43+08:00</time>
      </trkpt>
      <trkpt lat="31.1274266336" lon="121.400460005">
        <ele>11.6</ele>
        <time>2026-09-28T23:17:46+08:00</time>
      </trkpt>
      <trkpt lat="31.1274399608" lon="121.400554972">
        <ele>13.6</ele>
        <time>2026-09-28T23:17:50+08:00</time>
      </trkpt>
      <trkpt lat="31.1274483427" lon="121.40064667">
        <ele>14.4</ele>
        <time>2026-09-28T23:17:54+08:00</time>
      </trkpt>
      <trkpt lat="31.1274383683" lon="121.400729986">
        <ele>15.2</ele>
        <time>2026-09-28T23:17:58+08:00</time>
      </trkpt>
      <trkpt lat="31.1274399608" lon="121.400826629">
        <ele>15.4</ele>
        <time>2026-09-28T23:18:02+08:00</time>
      </trkpt>
      <trkpt lat="31.1274516955" lon="121.400914975">
        <ele>14.6</ele>
        <time>2026-09-28T23:18:06+08:00</time>
      </trkpt>
      <trkpt lat="31.1274466664" lon="121.401013294">
        <ele>14.6</ele>
        <time>2026-09-28T23:18:10+08:00</time>
      </trkpt>
      <trkpt lat="31.1274566408" lon="121.401099963">
        <ele>14.2</ele>
        <time>2026-09-28T23:18:14+08:00</time>
      </trkpt>
      <trkpt lat="31.1274633463" lon="121.401188308">
        <ele>13.6</ele>
        <time>2026-09-28T23:18:18+08:00</time>
      </trkpt>
      <trkpt lat="31.12747835" lon="121.401281683">
        <ele>13.6</ele>
        <time>2026-09-28T23:18:22+08:00</time>
      </trkpt>
      <trkpt lat="31.1274933536" lon="121.401386708">
        <ele>13.4</ele>
        <time>2026-09-28T23:18:27+08:00</time>
      </trkpt>
      <trkpt lat="31.1275466625" lon="121.401461642">
        <ele>13.8</ele>
        <time>2026-09-28T23:18:31+08:00</time>
      </trkpt>
      <trkpt lat="31.1275999714" lon="121.401526686">
        <ele>9.4</ele>
        <time>2026-09-28T23:18:35+08:00</time>
      </trkpt>
      <trkpt lat="31.127673313" lon="121.401546635">
        <ele>9.0</ele>
        <time>2026-09-28T23:18:39+08:00</time>
      </trkpt>
      <trkpt lat="31.1277449783" lon="121.40157002">
        <ele>8.6</ele>
        <time>2026-09-28T23:18:43+08:00</time>
      </trkpt>
      <trkpt lat="31.1278282944" lon="121.401571697">
        <ele>8.0</ele>
        <time>2026-09-28T23:18:47+08:00</time>
      </trkpt>
      <trkpt lat="31.1279166397" lon="121.401561638">
        <ele>7.4</ele>
        <time>2026-09-28T23:18:51+08:00</time>
      </trkpt>
      <trkpt lat="31.127985036" lon="121.40153666">
        <ele>7.0</ele>
        <time>2026-09-28T23:18:55+08:00</time>
      </trkpt>
      <trkpt lat="31.1280599702" lon="121.401526686">
        <ele>6.6</ele>
        <time>2026-09-28T23:19:00+08:00</time>
      </trkpt>
      <trkpt lat="31.1281366646" lon="121.401491649">
        <ele>7.8</ele>
        <time>2026-09-28T23:19:04+08:00</time>
      </trkpt>
      <trkpt lat="31.1282100063" lon="121.401501708">
        <ele>7.4</ele>
        <time>2026-09-28T23:19:08+08:00</time>
      </trkpt>
      <trkpt lat="31.1282867007" lon="121.401498355">
        <ele>6.8</ele>
        <time>2026-09-28T23:19:13+08:00</time>
      </trkpt>
      <trkpt lat="31.1283649877" lon="121.401481675">
        <ele>8.2</ele>
        <time>2026-09-28T23:19:18+08:00</time>
      </trkpt>
      <trkpt lat="31.1284483038" lon="121.401474969">
        <ele>8.8</ele>
        <time>2026-09-28T23:19:23+08:00</time>
      </trkpt>
      <trkpt lat="31.1283766385" lon="121.401451668">
        <ele>10.4</ele>
        <time>2026-09-28T23:19:33+08:00</time>
      </trkpt>
      <trkpt lat="31.1283017043" lon="121.401478322">
        <ele>9.8</ele>
        <time>2026-09-28T23:19:37+08:00</time>
      </trkpt>
      <trkpt lat="31.1282266863" lon="121.401474969">
        <ele>9.6</ele>
        <time>2026-09-28T23:19:41+08:00</time>
      </trkpt>
      <trkpt lat="31.1281516682" lon="121.401498355">
        <ele>9.8</ele>
        <time>2026-09-28T23:19:45+08:00</time>
      </trkpt>
      <trkpt lat="31.128080003" lon="121.401506653">
        <ele>9.8</ele>
        <time>2026-09-28T23:19:49+08:00</time>
      </trkpt>
      <trkpt lat="31.1280033085" lon="121.401516628">
        <ele>9.4</ele>
        <time>2026-09-28T23:19:53+08:00</time>
      </trkpt>
      <trkpt lat="31.1279299669" lon="121.401533308">
        <ele>9.2</ele>
        <time>2026-09-28T23:19:57+08:00</time>
      </trkpt>
      <trkpt lat="31.1278417055" lon="121.401521657">
        <ele>9.6</ele>
        <time>2026-09-28T23:20:01+08:00</time>
      </trkpt>
      <trkpt lat="31.1277666874" lon="121.401541689">
        <ele>9.8</ele>
        <time>2026-09-28T23:20:05+08:00</time>
      </trkpt>
      <trkpt lat="31.1276833713" lon="121.401538337">
        <ele>9.6</ele>
        <time>2026-09-28T23:20:09+08:00</time>
      </trkpt>
      <trkpt lat="31.127598295" lon="121.401556693">
        <ele>10.2</ele>
        <time>2026-09-28T23:20:13+08:00</time>
      </trkpt>
      <trkpt lat="31.1275283061" lon="121.401526686">
        <ele>9.6</ele>
        <time>2026-09-28T23:20:17+08:00</time>
      </trkpt>
      <trkpt lat="31.1274483427" lon="121.401486704">
        <ele>10.4</ele>
        <time>2026-09-28T23:20:22+08:00</time>
      </trkpt>
      <trkpt lat="31.1274383683" lon="121.401389977">
        <ele>12.2</ele>
        <time>2026-09-28T23:20:26+08:00</time>
      </trkpt>
      <trkpt lat="31.1274399608" lon="121.401293334">
        <ele>13.4</ele>
        <time>2026-09-28T23:20:30+08:00</time>
      </trkpt>
      <trkpt lat="31.1274266336" lon="121.40119669">
        <ele>13.6</ele>
        <time>2026-09-28T23:20:34+08:00</time>
      </trkpt>
      <trkpt lat="31.1274216883" lon="121.401099963">
        <ele>14.0</ele>
        <time>2026-09-28T23:20:38+08:00</time>
      </trkpt>
      <trkpt lat="31.12741163" lon="121.401014971">
        <ele>13.4</ele>
        <time>2026-09-28T23:20:42+08:00</time>
      </trkpt>
      <trkpt lat="31.1274149828" lon="121.400925033">
        <ele>13.2</ele>
        <time>2026-09-28T23:20:46+08:00</time>
      </trkpt>
      <trkpt lat="31.1274183355" lon="121.400838364">
        <ele>13.6</ele>
        <time>2026-09-28T23:20:50+08:00</time>
      </trkpt>
      <trkpt lat="31.1274166591" lon="121.400753371">
        <ele>13.2</ele>
        <time>2026-09-28T23:20:54+08:00</time>
      </trkpt>
      <trkpt lat="31.1274149828" lon="121.400666703">
        <ele>12.8</ele>
        <time>2026-09-28T23:20:58+08:00</time>
      </trkpt>
      <trkpt lat="31.12741163" lon="121.400575005">
        <ele>12.6</ele>
        <time>2026-09-28T23:21:02+08:00</time>
      </trkpt>
      <trkpt lat="31.1274083611" lon="121.400480038">
        <ele>12.6</ele>
        <time>2026-09-28T23:21:06+08:00</time>
      </trkpt>
      <trkpt lat="31.1274149828" lon="121.400380041">
        <ele>11.8</ele>
        <time>2026-09-28T23:21:10+08:00</time>
      </trkpt>
      <trkpt lat="31.12741163" lon="121.400286667">
        <ele>12.6</ele>
        <time>2026-09-28T23:21:14+08:00</time>
      </trkpt>
      <trkpt lat="31.1274183355" lon="121.400194969">
        <ele>12.4</ele>
        <time>2026-09-28T23:21:18+08:00</time>
      </trkpt>
      <trkpt lat="31.1274149828" lon="121.400103355">
        <ele>11.6</ele>
        <time>2026-09-28T23:21:22+08:00</time>
      </trkpt>
      <trkpt lat="31.1274066847" lon="121.400011657">
        <ele>11.8</ele>
        <time>2026-09-28T23:21:26+08:00</time>
      </trkpt>
      <trkpt lat="31.1274016555" lon="121.399909984">
        <ele>11.4</ele>
        <time>2026-09-28T23:21:30+08:00</time>
      </trkpt>
      <trkpt lat="31.1274133064" lon="121.399811665">
        <ele>10.8</ele>
        <time>2026-09-28T23:21:34+08:00</time>
      </trkpt>
      <trkpt lat="31.1274216883" lon="121.399728348">
        <ele>10.6</ele>
        <time>2026-09-28T23:21:37+08:00</time>
      </trkpt>
      <trkpt lat="31.1274299864" lon="121.399631705">
        <ele>10.2</ele>
        <time>2026-09-28T23:21:41+08:00</time>
      </trkpt>
      <trkpt lat="31.1274383683" lon="121.399530033">
        <ele>10.4</ele>
        <time>2026-09-28T23:21:45+08:00</time>
      </trkpt>
      <trkpt lat="31.1274433136" lon="121.399438335">
        <ele>10.4</ele>
        <time>2026-09-28T23:21:49+08:00</time>
      </trkpt>
      <trkpt lat="31.12744499" lon="121.399351666">
        <ele>10.2</ele>
        <time>2026-09-28T23:21:53+08:00</time>
      </trkpt>
      <trkpt lat="31.1274566408" lon="121.399255022">
        <ele>10.4</ele>
        <time>2026-09-28T23:21:58+08:00</time>
      </trkpt>
      <trkpt lat="31.1274599936" lon="121.399166677">
        <ele>10.2</ele>
        <time>2026-09-28T23:22:02+08:00</time>
      </trkpt>
      <trkpt lat="31.1274716444" lon="121.399078332">
        <ele>10.2</ele>
        <time>2026-09-28T23:22:06+08:00</time>
      </trkpt>
      <trkpt lat="31.1274800263" lon="121.398980012">
        <ele>9.6</ele>
        <time>2026-09-28T23:22:11+08:00</time>
      </trkpt>
      <trkpt lat="31.1275016516" lon="121.398880016">
        <ele>9.4</ele>
        <time>2026-09-28T23:22:16+08:00</time>
      </trkpt>
      <trkpt lat="31.1275233608" lon="121.3987967">
        <ele>9.2</ele>
        <time>2026-09-28T23:22:20+08:00</time>
      </trkpt>
      <trkpt lat="31.1275500152" lon="121.398706678">
        <ele>9.6</ele>
        <time>2026-09-28T23:22:25+08:00</time>
      </trkpt>
      <trkpt lat="31.1275599897" lon="121.398616657">
        <ele>9.2</ele>
        <time>2026-09-28T23:22:29+08:00</time>
      </trkpt>
      <trkpt lat="31.1275849678" lon="121.398518337">
        <ele>8.6</ele>
        <time>2026-09-28T23:22:34+08:00</time>
      </trkpt>
      <trkpt lat="31.1276100297" lon="121.398424963">
        <ele>7.8</ele>
        <time>2026-09-28T23:22:39+08:00</time>
      </trkpt>
      <trkpt lat="31.1276283022" lon="121.398336701">
        <ele>8.0</ele>
        <time>2026-09-28T23:22:44+08:00</time>
      </trkpt>
      <trkpt lat="31.1276516877" lon="121.398251625">
        <ele>8.2</ele>
        <time>2026-09-28T23:22:49+08:00</time>
      </trkpt>
      <trkpt lat="31.1276766658" lon="121.398163363">
        <ele>8.0</ele>
        <time>2026-09-28T23:22:54+08:00</time>
      </trkpt>
      <trkpt lat="31.1276983749" lon="121.398075018">
        <ele>8.8</ele>
        <time>2026-09-28T23:22:59+08:00</time>
      </trkpt>
      <trkpt lat="31.1277267057" lon="121.397976698">
        <ele>8.6</ele>
        <time>2026-09-28T23:23:04+08:00</time>
      </trkpt>
      <trkpt lat="31.1277566291" lon="121.397879971">
        <ele>9.0</ele>
        <time>2026-09-28T23:23:09+08:00</time>
      </trkpt>
      <trkpt lat="31.1277783383" lon="121.397794979">
        <ele>8.6</ele>
        <time>2026-09-28T23:23:13+08:00</time>
      </trkpt>
      <trkpt lat="31.1278049927" lon="121.39770831">
        <ele>8.4</ele>
        <time>2026-09-28T23:23:17+08:00</time>
      </trkpt>
      <trkpt lat="31.1278316472" lon="121.397628346">
        <ele>8.6</ele>
        <time>2026-09-28T23:23:21+08:00</time>
      </trkpt>
      <trkpt lat="31.1278566252" lon="121.397533296">
        <ele>8.2</ele>
        <time>2026-09-28T23:23:26+08:00</time>
      </trkpt>
      <trkpt lat="31.127876658" lon="121.397453332">
        <ele>8.2</ele>
        <time>2026-09-28T23:23:30+08:00</time>
      </trkpt>
      <trkpt lat="31.1278916616" lon="121.397349983">
        <ele>8.2</ele>
        <time>2026-09-28T23:23:35+08:00</time>
      </trkpt>
      <trkpt lat="31.1278783344" lon="121.397258369">
        <ele>9.8</ele>
        <time>2026-09-28T23:23:39+08:00</time>
      </trkpt>
      <trkpt lat="31.1279383488" lon="121.397200031">
        <ele>9.0</ele>
        <time>2026-09-28T23:23:44+08:00</time>
      </trkpt>
      <trkpt lat="31.127985036" lon="121.397116631">
        <ele>8.0</ele>
        <time>2026-09-28T23:23:49+08:00</time>
      </trkpt>
      <trkpt lat="31.1280166358" lon="121.397036668">
        <ele>7.8</ele>
        <time>2026-09-28T23:23:54+08:00</time>
      </trkpt>
      <trkpt lat="31.1280533485" lon="121.39696165">
        <ele>7.6</ele>
        <time>2026-09-28T23:23:59+08:00</time>
      </trkpt>
      <trkpt lat="31.1280933302" lon="121.396883363">
        <ele>7.6</ele>
        <time>2026-09-28T23:24:03+08:00</time>
      </trkpt>
      <trkpt lat="31.1281366646" lon="121.396811698">
        <ele>8.6</ele>
        <time>2026-09-28T23:24:08+08:00</time>
      </trkpt>
      <trkpt lat="31.1281882972" lon="121.396744978">
        <ele>8.4</ele>
        <time>2026-09-28T23:24:12+08:00</time>
      </trkpt>
      <trkpt lat="31.128233308" lon="121.396676665">
        <ele>7.4</ele>
        <time>2026-09-28T23:24:16+08:00</time>
      </trkpt>
      <trkpt lat="31.1282566935" lon="121.396593349">
        <ele>8.4</ele>
        <time>2026-09-28T23:24:20+08:00</time>
      </trkpt>
      <trkpt lat="31.1282833479" lon="121.396501651">
        <ele>9.6</ele>
        <time>2026-09-28T23:24:25+08:00</time>
      </trkpt>
      <trkpt lat="31.1283300351" lon="121.396418335">
        <ele>9.2</ele>
        <time>2026-09-28T23:24:30+08:00</time>
      </trkpt>
      <trkpt lat="31.1283783149" lon="121.396350022">
        <ele>8.8</ele>
        <time>2026-09-28T23:24:35+08:00</time>
      </trkpt>
      <trkpt lat="31.1284266785" lon="121.396284979">
        <ele>8.4</ele>
        <time>2026-09-28T23:24:40+08:00</time>
      </trkpt>
      <trkpt lat="31.1284966674" lon="121.396221695">
        <ele>8.6</ele>
        <time>2026-09-28T23:24:45+08:00</time>
      </trkpt>
      <trkpt lat="31.1285482999" lon="121.396151707">
        <ele>8.6</ele>
        <time>2026-09-28T23:24:49+08:00</time>
      </trkpt>
      <trkpt lat="31.1285766307" lon="121.396058332">
        <ele>8.6</ele>
        <time>2026-09-28T23:24:54+08:00</time>
      </trkpt>
      <trkpt lat="31.1286199652" lon="121.395986667">
        <ele>8.6</ele>
        <time>2026-09-28T23:24:58+08:00</time>
      </trkpt>
      <trkpt lat="31.1286450271" lon="121.395903351">
        <ele>9.2</ele>
        <time>2026-09-28T23:25:02+08:00</time>
      </trkpt>
      <trkpt lat="31.1286766268" lon="121.395826656">
        <ele>9.6</ele>
        <time>2026-09-28T23:25:06+08:00</time>
      </trkpt>
      <trkpt lat="31.1287199613" lon="121.39574334">
        <ele>8.6</ele>
        <time>2026-09-28T23:25:11+08:00</time>
      </trkpt>
      <trkpt lat="31.1287533212" lon="121.395666646">
        <ele>8.6</ele>
        <time>2026-09-28T23:25:15+08:00</time>
      </trkpt>
      <trkpt lat="31.1288099829" lon="121.395613337">
        <ele>9.2</ele>
        <time>2026-09-28T23:25:19+08:00</time>
      </trkpt>
      <trkpt lat="31.128848372" lon="121.395530021">
        <ele>9.0</ele>
        <time>2026-09-28T23:25:23+08:00</time>
      </trkpt>
      <trkpt lat="31.1287933029" lon="121.395591628">
        <ele>8.6</ele>
        <time>2026-09-28T23:25:34+08:00</time>
      </trkpt>
      <trkpt lat="31.1287533212" lon="121.395663293">
        <ele>8.8</ele>
        <time>2026-09-28T23:25:38+08:00</time>
      </trkpt>
      <trkpt lat="31.1287083104" lon="121.395745017">
        <ele>8.8</ele>
        <time>2026-09-28T23:25:42+08:00</time>
      </trkpt>
      <trkpt lat="31.1286666524" lon="121.395823304">
        <ele>9.0</ele>
        <time>2026-09-28T23:25:46+08:00</time>
      </trkpt>
      <trkpt lat="31.1286366452" lon="121.395911649">
        <ele>8.6</ele>
        <time>2026-09-28T23:25:50+08:00</time>
      </trkpt>
      <trkpt lat="31.1286116671" lon="121.396005023">
        <ele>8.0</ele>
        <time>2026-09-28T23:25:55+08:00</time>
      </trkpt>
      <trkpt lat="31.1285666563" lon="121.396078365">
        <ele>8.2</ele>
        <time>2026-09-28T23:25:59+08:00</time>
      </trkpt>
      <trkpt lat="31.1285233218" lon="121.396168303">
        <ele>8.0</ele>
        <time>2026-09-28T23:26:04+08:00</time>
      </trkpt>
      <trkpt lat="31.1284700129" lon="121.396233346">
        <ele>8.6</ele>
        <time>2026-09-28T23:26:08+08:00</time>
      </trkpt>
      <trkpt lat="31.1284099985" lon="121.396295037">
        <ele>8.6</ele>
        <time>2026-09-28T23:26:12+08:00</time>
      </trkpt>
      <trkpt lat="31.1283566896" lon="121.39636335">
        <ele>8.2</ele>
        <time>2026-09-28T23:26:17+08:00</time>
      </trkpt>
      <trkpt lat="31.1283167079" lon="121.396448342">
        <ele>8.6</ele>
        <time>2026-09-28T23:26:22+08:00</time>
      </trkpt>
      <trkpt lat="31.1282833479" lon="121.396529982">
        <ele>8.4</ele>
        <time>2026-09-28T23:26:26+08:00</time>
      </trkpt>
      <trkpt lat="31.1282483116" lon="121.396618327">
        <ele>8.0</ele>
        <time>2026-09-28T23:26:31+08:00</time>
      </trkpt>
      <trkpt lat="31.1282199807" lon="121.396701643">
        <ele>6.8</ele>
        <time>2026-09-28T23:26:35+08:00</time>
      </trkpt>
      <trkpt lat="31.1281816754" lon="121.396784959">
        <ele>8.0</ele>
        <time>2026-09-28T23:26:39+08:00</time>
      </trkpt>
      <trkpt lat="31.128138341" lon="121.396851679">
        <ele>8.0</ele>
        <time>2026-09-28T23:26:43+08:00</time>
      </trkpt>
      <trkpt lat="31.1280749738" lon="121.396923345">
        <ele>8.2</ele>
        <time>2026-09-28T23:26:48+08:00</time>
      </trkpt>
      <trkpt lat="31.1280216649" lon="121.396991657">
        <ele>7.2</ele>
        <time>2026-09-28T23:26:53+08:00</time>
      </trkpt>
      <trkpt lat="31.1279866286" lon="121.397083355">
        <ele>7.0</ele>
        <time>2026-09-28T23:26:58+08:00</time>
      </trkpt>
      <trkpt lat="31.1279650033" lon="121.397176646">
        <ele>6.6</ele>
        <time>2026-09-28T23:27:04+08:00</time>
      </trkpt>
      <trkpt lat="31.1279417016" lon="121.397258369">
        <ele>7.0</ele>
        <time>2026-09-28T23:27:08+08:00</time>
      </trkpt>
      <trkpt lat="31.1279149633" lon="121.397346631">
        <ele>7.0</ele>
        <time>2026-09-28T23:27:13+08:00</time>
      </trkpt>
      <trkpt lat="31.1278749816" lon="121.397440005">
        <ele>7.4</ele>
        <time>2026-09-28T23:27:18+08:00</time>
      </trkpt>
      <trkpt lat="31.1278466508" lon="121.397538325">
        <ele>6.6</ele>
        <time>2026-09-28T23:27:23+08:00</time>
      </trkpt>
      <trkpt lat="31.1278183199" lon="121.397616696">
        <ele>6.6</ele>
        <time>2026-09-28T23:27:27+08:00</time>
      </trkpt>
      <trkpt lat="31.1277899891" lon="121.39770831">
        <ele>8.0</ele>
        <time>2026-09-28T23:27:32+08:00</time>
      </trkpt>
      <trkpt lat="31.1277716327" lon="121.397791626">
        <ele>8.0</ele>
        <time>2026-09-28T23:27:36+08:00</time>
      </trkpt>
      <trkpt lat="31.1277433019" lon="121.397891706">
        <ele>8.0</ele>
        <time>2026-09-28T23:27:41+08:00</time>
      </trkpt>
      <trkpt lat="31.1277166475" lon="121.397993295">
        <ele>7.6</ele>
        <time>2026-09-28T23:27:46+08:00</time>
      </trkpt>
      <trkpt lat="31.1277016439" lon="121.39808164">
        <ele>8.0</ele>
        <time>2026-09-28T23:27:51+08:00</time>
      </trkpt>
      <trkpt lat="31.1276666913" lon="121.398168309">
        <ele>9.2</ele>
        <time>2026-09-28T23:27:56+08:00</time>
      </trkpt>
      <trkpt lat="31.127648335" lon="121.398253301">
        <ele>8.6</ele>
        <time>2026-09-28T23:28:01+08:00</time>
      </trkpt>
      <trkpt lat="31.1276266258" lon="121.398348352">
        <ele>9.2</ele>
        <time>2026-09-28T23:28:06+08:00</time>
      </trkpt>
      <trkpt lat="31.1276033241" lon="121.398439966">
        <ele>8.2</ele>
        <time>2026-09-28T23:28:11+08:00</time>
      </trkpt>
      <trkpt lat="31.1275833752" lon="121.398531664">
        <ele>8.8</ele>
        <time>2026-09-28T23:28:16+08:00</time>
      </trkpt>
      <trkpt lat="31.1275616661" lon="121.39863166">
        <ele>8.6</ele>
        <time>2026-09-28T23:28:21+08:00</time>
      </trkpt>
      <trkpt lat="31.1275449861" lon="121.398720006">
        <ele>9.8</ele>
        <time>2026-09-28T23:28:27+08:00</time>
      </trkpt>
      <trkpt lat="31.1275316589" lon="121.398811704">
        <ele>9.6</ele>
        <time>2026-09-28T23:28:32+08:00</time>
      </trkpt>
      <trkpt lat="31.1275100335" lon="121.398906671">
        <ele>10.6</ele>
        <time>2026-09-28T23:28:37+08:00</time>
      </trkpt>
      <trkpt lat="31.1274916772" lon="121.399001637">
        <ele>11.0</ele>
        <time>2026-09-28T23:28:42+08:00</time>
      </trkpt>
      <trkpt lat="31.1274849717" lon="121.399096688">
        <ele>12.4</ele>
        <time>2026-09-28T23:28:48+08:00</time>
      </trkpt>
      <trkpt lat="31.1274716444" lon="121.399186626">
        <ele>12.4</ele>
        <time>2026-09-28T23:28:53+08:00</time>
      </trkpt>
      <trkpt lat="31.12746167" lon="121.399278324">
        <ele>12.6</ele>
        <time>2026-09-28T23:28:58+08:00</time>
      </trkpt>
      <trkpt lat="31.12746167" lon="121.399370022">
        <ele>12.6</ele>
        <time>2026-09-28T23:29:03+08:00</time>
      </trkpt>
      <trkpt lat="31.1274549644" lon="121.399466665">
        <ele>12.8</ele>
        <time>2026-09-28T23:29:07+08:00</time>
      </trkpt>
      <trkpt lat="31.1274483427" lon="121.39957496">
        <ele>13.0</ele>
        <time>2026-09-28T23:29:12+08:00</time>
      </trkpt>
      <trkpt lat="31.1274416372" lon="121.399678309">
        <ele>12.6</ele>
        <time>2026-09-28T23:29:17+08:00</time>
      </trkpt>
      <trkpt lat="31.1274416372" lon="121.399771683">
        <ele>12.8</ele>
        <time>2026-09-28T23:29:22+08:00</time>
      </trkpt>
      <trkpt lat="31.1274500191" lon="121.399870003">
        <ele>12.6</ele>
        <time>2026-09-28T23:29:27+08:00</time>
      </trkpt>
      <trkpt lat="31.1274366919" lon="121.399963293">
        <ele>10.8</ele>
        <time>2026-09-28T23:29:31+08:00</time>
      </trkpt>
      <trkpt lat="31.1274399608" lon="121.400056668">
        <ele>10.2</ele>
        <time>2026-09-28T23:29:36+08:00</time>
      </trkpt>
      <trkpt lat="31.12742831" lon="121.400143337">
        <ele>10.2</ele>
        <time>2026-09-28T23:29:41+08:00</time>
      </trkpt>
      <trkpt lat="31.12742831" lon="121.400230005">
        <ele>10.4</ele>
        <time>2026-09-28T23:29:45+08:00</time>
      </trkpt>
      <trkpt lat="31.12744499" lon="121.400316674">
        <ele>10.8</ele>
        <time>2026-09-28T23:29:49+08:00</time>
      </trkpt>
      <trkpt lat="31.1274316628" lon="121.400411641">
        <ele>11.2</ele>
        <time>2026-09-28T23:29:53+08:00</time>
      </trkpt>
      <trkpt lat="31.1274500191" lon="121.400506692">
        <ele>11.4</ele>
        <time>2026-09-28T23:29:58+08:00</time>
      </trkpt>
      <trkpt lat="31.1274433136" lon="121.400601659">
        <ele>10.6</ele>
        <time>2026-09-28T23:30:03+08:00</time>
      </trkpt>
      <trkpt lat="31.12744499" lon="121.400701655">
        <ele>12.4</ele>
        <time>2026-09-28T23:30:08+08:00</time>
      </trkpt>
      <trkpt lat="31.1274399608" lon="121.400805004">
        <ele>11.4</ele>
        <time>2026-09-28T23:30:13+08:00</time>
      </trkpt>
      <trkpt lat="31.1274483427" lon="121.400891673">
        <ele>11.2</ele>
        <time>2026-09-28T23:30:17+08:00</time>
      </trkpt>
      <trkpt lat="31.1274483427" lon="121.40098664">
        <ele>9.8</ele>
        <time>2026-09-28T23:30:21+08:00</time>
      </trkpt>
      <trkpt lat="31.1274516955" lon="121.401083367">
        <ele>10.4</ele>
        <time>2026-09-28T23:30:26+08:00</time>
      </trkpt>
      <trkpt lat="31.1274682917" lon="121.401171628">
        <ele>10.6</ele>
        <time>2026-09-28T23:30:30+08:00</time>
      </trkpt>
      <trkpt lat="31.1274682917" lon="121.401263326">
        <ele>10.2</ele>
        <time>2026-09-28T23:30:34+08:00</time>
      </trkpt>
      <trkpt lat="31.1274749972" lon="121.401364999">
        <ele>10.6</ele>
        <time>2026-09-28T23:30:38+08:00</time>
      </trkpt>
      <trkpt lat="31.1275183316" lon="121.401455021">
        <ele>9.6</ele>
        <time>2026-09-28T23:30:42+08:00</time>
      </trkpt>
      <trkpt lat="31.1275916733" lon="121.401506653">
        <ele>8.8</ele>
        <time>2026-09-28T23:30:46+08:00</time>
      </trkpt>
      <trkpt lat="31.1276683677" lon="121.401530039">
        <ele>9.2</ele>
        <time>2026-09-28T23:30:50+08:00</time>
      </trkpt>
      <trkpt lat="31.1277416255" lon="121.401533308">
        <ele>9.2</ele>
        <time>2026-09-28T23:30:53+08:00</time>
      </trkpt>
      <trkpt lat="31.1278267018" lon="121.401541689">
        <ele>8.8</ele>
        <time>2026-09-28T23:30:57+08:00</time>
      </trkpt>
      <trkpt lat="31.127893338" lon="121.401504977">
        <ele>8.8</ele>
        <time>2026-09-28T23:31:00+08:00</time>
      </trkpt>
      <trkpt lat="31.127971625" lon="121.401543366">
        <ele>9.2</ele>
        <time>2026-09-28T23:31:04+08:00</time>
      </trkpt>
      <trkpt lat="31.1280550249" lon="121.401533308">
        <ele>9.2</ele>
        <time>2026-09-28T23:31:08+08:00</time>
      </trkpt>
      <trkpt lat="31.1281433702" lon="121.401543366">
        <ele>8.0</ele>
        <time>2026-09-28T23:31:13+08:00</time>
      </trkpt>
      <trkpt lat="31.1282233335" lon="121.401511682">
        <ele>8.2</ele>
        <time>2026-09-28T23:31:17+08:00</time>
      </trkpt>
      <trkpt lat="31.1283017043" lon="121.401501708">
        <ele>8.0</ele>
        <time>2026-09-28T23:31:21+08:00</time>
      </trkpt>
      <trkpt lat="31.1283866968" lon="121.401495002">
        <ele>9.0</ele>
        <time>2026-09-28T23:31:26+08:00</time>
      </trkpt>
      <trkpt lat="31.1284683365" lon="121.401461642">
        <ele>11.4</ele>
        <time>2026-09-28T23:31:31+08:00</time>
      </trkpt>
      <trkpt lat="31.1285499763" lon="121.401440017">
        <ele>10.8</ele>
        <time>2026-09-28T23:31:43+08:00</time>
      </trkpt>
      <trkpt lat="31.1284550093" lon="121.401446639">
        <ele>11.6</ele>
        <time>2026-09-28T23:31:45+08:00</time>
      </trkpt>
    </trkseg>
  </trk>
</gpx>